<?xml version="1.0" encoding="UTF-8"?>
<kml xmlns="http://www.opengis.net/kml/2.2">
<Document>
<name>만주연방 - 7개 구성국 영토도</name>
<description>가상의 만주연방. 공화국 4곳, 자유국 3곳, 연방직할지 5곳.</description>
<Style id="s_manju"><LineStyle><color>ffffffff</color><width>3</width></LineStyle><PolyStyle><color>99b4771f</color><fill>1</fill><outline>1</outline></PolyStyle></Style>
<Style id="s_bongcheon"><LineStyle><color>ffffffff</color><width>3</width></LineStyle><PolyStyle><color>992827d6</color><fill>1</fill><outline>1</outline></PolyStyle></Style>
<Style id="s_gando"><LineStyle><color>ffffffff</color><width>3</width></LineStyle><PolyStyle><color>992ca02c</color><fill>1</fill><outline>1</outline></PolyStyle></Style>
<Style id="s_heungan"><LineStyle><color>ffffffff</color><width>3</width></LineStyle><PolyStyle><color>991c9fff</color><fill>1</fill><outline>1</outline></PolyStyle></Style>
<Style id="s_samgang"><LineStyle><color>ffffffff</color><width>3</width></LineStyle><PolyStyle><color>99cfbe17</color><fill>1</fill><outline>1</outline></PolyStyle></Style>
<Style id="s_harbin"><LineStyle><color>ffffffff</color><width>3</width></LineStyle><PolyStyle><color>99bd6794</color><fill>1</fill><outline>1</outline></PolyStyle></Style>
<Style id="s_yeolha"><LineStyle><color>ffffffff</color><width>3</width></LineStyle><PolyStyle><color>994b568c</color><fill>1</fill><outline>1</outline></PolyStyle></Style>
<Style id="s_fed"><LineStyle><color>ff00d7ff</color><width>3</width></LineStyle><PolyStyle><color>bb00d7ff</color><fill>1</fill><outline>1</outline></PolyStyle></Style>
<Folder><name>1. 구성국 영토 (7)</name>
<Placemark><name>1. 만주 공화국</name><description><![CDATA[<b>滿洲共和國</b><br>구분: 공화국<br>중심 도시: 지린<br>주체: 만주족<br><br>송눈평원과 백두산 서편의 곡창지대. 만주족의 정체성을 이어받은 연방의 정신적 중심이며 신징 직할시를 품고 있다.]]></description><styleUrl>#s_manju</styleUrl><Polygon><outerBoundaryIs><LinearRing><coordinates>122.6,43.2 122.8,44.8 122.7,46.7 124.5,46.2 125.9,46.1 125.6,45.1 126.8,44.8 127.8,45.2 127.5,46.1 129.0,44.5 127.9,43.7 127.5,42.7 128.1,41.9 126.2,41.1 125.3,42.2 124.1,43.0 122.6,43.2</coordinates></LinearRing></outerBoundaryIs></Polygon></Placemark>
<Placemark><name>2. 봉천 공화국</name><description><![CDATA[<b>奉天共和國</b><br>구분: 공화국<br>중심 도시: 선양<br>주체: 한족<br><br>요하 평야와 랴오둥 반도 북부. 한족 이주민이 세운 연방 최대의 공업·군사 중심지이며 옛 봉천의 이름을 잇는다.]]></description><styleUrl>#s_bongcheon</styleUrl><Polygon><outerBoundaryIs><LinearRing><coordinates>120.9,40.7 121.9,40.9 122.1,40.3 121.6,39.8 122.2,39.8 122.9,39.85 124.4,39.9 125.0,40.6 126.2,41.1 125.3,42.2 124.1,43.0 122.6,43.2 120.5,43.0 121.3,41.7 120.9,40.7</coordinates></LinearRing></outerBoundaryIs></Polygon></Placemark>
<Placemark><name>3. 간도 공화국</name><description><![CDATA[<b>間島共和國</b><br>구분: 공화국<br>중심 도시: 연길<br>주체: 조선족<br><br>두만강 북쪽 백두산 동편 산악지대. 조선족이 개척했고 동해로 이어지는 훈춘 회랑을 통해 바다와 닿는다.]]></description><styleUrl>#s_gando</styleUrl><Polygon><outerBoundaryIs><LinearRing><coordinates>129.0,44.5 130.6,44.6 131.3,44.0 131.1,42.6 130.6,42.4 129.7,42.4 128.6,42.0 128.1,41.9 127.5,42.7 127.9,43.7 129.0,44.5</coordinates></LinearRing></outerBoundaryIs></Polygon></Placemark>
<Placemark><name>4. 흥안 공화국</name><description><![CDATA[<b>興安共和國</b><br>구분: 공화국<br>중심 도시: 하이라르<br>주체: 몽골족<br><br>흥안령 서편의 초원과 호른보이르. 몽골족의 유목 전통이 살아 있으며 서쪽 국경을 지키는 기마 방어선이다.]]></description><styleUrl>#s_heungan</styleUrl><Polygon><outerBoundaryIs><LinearRing><coordinates>120.5,43.0 122.6,43.2 122.8,44.8 122.7,46.7 123.3,48.3 123.0,50.0 120.8,52.3 120.2,50.2 118.8,49.9 117.4,49.5 117.0,49.2 115.9,47.9 115.5,46.0 115.7,44.0 116.3,43.0 118.5,43.6 120.5,43.0</coordinates></LinearRing></outerBoundaryIs></Polygon></Placemark>
<Placemark><name>5. 삼강 자유국</name><description><![CDATA[<b>三江自由國</b><br>구분: 자유국<br>중심 도시: 치치하르<br>주체: 다우르·에벤키·오로첸 연합<br><br>눈강·흑룡강·송화강 세 강이 만나는 북방 습지와 삼림. 북방 소수민족 연합이 강 항로와 사냥터를 공동 관리한다.]]></description><styleUrl>#s_samgang</styleUrl><Polygon><outerBoundaryIs><LinearRing><coordinates>122.7,46.7 123.3,48.3 123.0,50.0 120.8,52.3 121.6,53.3 123.5,53.5 124.7,52.3 126.0,51.0 127.5,50.2 130.5,48.8 134.7,48.4 134.0,47.0 133.0,45.6 131.9,44.9 131.3,44.0 130.6,44.6 129.0,44.5 127.5,46.1 125.9,46.1 124.5,46.2 122.7,46.7</coordinates></LinearRing></outerBoundaryIs></Polygon></Placemark>
<Placemark><name>6. 하얼빈 자유국</name><description><![CDATA[<b>哈爾濱自由國</b><br>구분: 자유국<br>중심 도시: 하얼빈<br>주체: 러시아계·유대계·타타르계 등 다민족 시민<br><br>송화강변 국제 무역 도시국가. 동청철도 이래의 다민족 상인 자치 전통을 가진 연방의 금융·외교 창구.]]></description><styleUrl>#s_harbin</styleUrl><Polygon><outerBoundaryIs><LinearRing><coordinates>125.9,46.1 127.5,46.1 127.8,45.2 126.8,44.8 125.6,45.1 125.9,46.1</coordinates></LinearRing></outerBoundaryIs></Polygon></Placemark>
<Placemark><name>7. 열하 자유국</name><description><![CDATA[<b>熱河自由國</b><br>구분: 자유국<br>중심 도시: 승덕(청더)<br>주체: 몽·만·한·회·조 혼합<br><br>옛 청 황실 피서산장이 있던 산악 완충지대. 다섯 민족이 뒤섞여 살며 화북과 만주 사이의 관문 역할을 한다.]]></description><styleUrl>#s_yeolha</styleUrl><Polygon><outerBoundaryIs><LinearRing><coordinates>116.0,40.4 117.6,39.9 119.8,40.0 120.9,40.7 121.3,41.7 120.5,43.0 118.5,43.6 116.3,43.0 115.9,41.6 116.0,40.4</coordinates></LinearRing></outerBoundaryIs></Polygon></Placemark>
</Folder><Folder><name>2. 연방 직할지 (5)</name>
<Placemark><name>신징 연방직할시 (수도)</name><description><![CDATA[연방 수도. 연방 의회와 연방 정부가 있으며 어느 구성국에도 속하지 않는다. (만주 공화국 영토 안에 위치)]]></description><styleUrl>#s_fed</styleUrl><Polygon><outerBoundaryIs><LinearRing><coordinates>125.0,43.8 125.15,44.1 125.5,44.1 125.65,43.85 125.45,43.65 125.1,43.65 125.0,43.8</coordinates></LinearRing></outerBoundaryIs></Polygon></Placemark>
<Placemark><name>대련 연방직할시</name><description><![CDATA[랴오둥 반도 남단의 부동항. 연방 해군기지와 국제 항만을 직할한다.]]></description><styleUrl>#s_fed</styleUrl><Polygon><outerBoundaryIs><LinearRing><coordinates>121.3,38.8 122.0,38.85 122.9,39.6 122.9,39.85 122.2,39.8 121.6,39.8 121.2,39.3 121.3,38.8</coordinates></LinearRing></outerBoundaryIs></Polygon></Placemark>
<Placemark><name>만주리 연방직할구</name><description><![CDATA[서부 국경의 철도 관문. 러시아·몽골과의 교역 세관을 연방이 직접 운영한다. (흥안 공화국 영토 안)]]></description><styleUrl>#s_fed</styleUrl><Polygon><outerBoundaryIs><LinearRing><coordinates>117.0,49.2 118.1,49.3 118.8,49.9 117.4,49.5 117.0,49.2</coordinates></LinearRing></outerBoundaryIs></Polygon></Placemark>
<Placemark><name>훈춘 연방직할구</name><description><![CDATA[두만강 하구의 동해 출구. 세 나라 국경이 맞닿아 연방이 직접 관리한다. (간도 공화국 영토 안)]]></description><styleUrl>#s_fed</styleUrl><Polygon><outerBoundaryIs><LinearRing><coordinates>130.0,42.55 130.7,42.45 130.9,42.9 130.5,43.2 130.0,43.0 130.0,42.55</coordinates></LinearRing></outerBoundaryIs></Polygon></Placemark>
<Placemark><name>흥안령 연방직할구 (선택)</name><description><![CDATA[대흥안령 산림 보호구. 목재·수자원을 연방이 관리한다. (흥안 공화국 영토 안)]]></description><styleUrl>#s_fed</styleUrl><Polygon><outerBoundaryIs><LinearRing><coordinates>120.6,47.6 121.8,47.8 122.2,49.0 121.2,49.6 120.4,48.6 120.6,47.6</coordinates></LinearRing></outerBoundaryIs></Polygon></Placemark>
</Folder><Folder><name>3. 중심 도시</name>
<Placemark><name>지린</name><description>만주 공화국 중심 도시</description><Point><coordinates>126.55,43.84</coordinates></Point></Placemark>
<Placemark><name>선양</name><description>봉천 공화국 중심 도시</description><Point><coordinates>123.43,41.8</coordinates></Point></Placemark>
<Placemark><name>연길</name><description>간도 공화국 중심 도시</description><Point><coordinates>129.51,42.89</coordinates></Point></Placemark>
<Placemark><name>하이라르</name><description>흥안 공화국 중심 도시</description><Point><coordinates>119.74,49.21</coordinates></Point></Placemark>
<Placemark><name>치치하르</name><description>삼강 자유국 중심 도시</description><Point><coordinates>123.92,47.35</coordinates></Point></Placemark>
<Placemark><name>하얼빈</name><description>하얼빈 자유국 중심 도시</description><Point><coordinates>126.63,45.76</coordinates></Point></Placemark>
<Placemark><name>승덕(청더)</name><description>열하 자유국 중심 도시</description><Point><coordinates>117.94,40.98</coordinates></Point></Placemark>
<Placemark><name>신징</name><description>연방 수도</description><Point><coordinates>125.32,43.9</coordinates></Point></Placemark>
<Placemark><name>대련</name><description>연방직할시</description><Point><coordinates>121.61,38.91</coordinates></Point></Placemark>
<Placemark><name>만주리</name><description>연방직할구</description><Point><coordinates>117.45,49.6</coordinates></Point></Placemark>
<Placemark><name>훈춘</name><description>연방직할구</description><Point><coordinates>130.37,42.86</coordinates></Point></Placemark>
</Folder></Document></kml>